IRIDIUM 126             
1 42809U 17039G   24353.90767162  .00000042  00000+0  80706-5 0  9999
2 42809  86.3984 221.4720 0001975  78.7114 281.4304 14.34218090391806
IRIDIUM 124             
1 42810U 17039H   24354.18132150  .00000319  00000+0  88956-4 0  9996
2 42810  86.4511 158.2006 0001830 106.0645 254.0758 14.43283447396502
IRIDIUM 128             
1 42811U 17039J   24354.17748308  .00000062  00000+0  15117-4 0  9998
2 42811  86.3973 252.8681 0001761  85.4137 274.7260 14.34213535391865
IRIDIUM 121             
1 42812U 17039K   24353.92670005  .00000027  00000+0  27454-5 0  9998
2 42812  86.3986 221.4881 0001891  88.4915 271.6497 14.34217799391791
IRIDIUM 133             
1 42955U 17061A   24353.72081688  .00000202  00000+0  64941-4 0  9998
2 42955  86.3973 253.1634 0001999  83.5637 276.5786 14.34219159376597
IRIDIUM 100             
1 42956U 17061B   24354.13308559  .00000398  00000+0  13521-3 0  9997
2 42956  86.3971 252.9226 0001822  80.1815 279.9586 14.34218877376676
IRIDIUM 122             
1 42957U 17061C   24353.68276208 -.00000147  00000+0 -59637-4 0  9995
2 42957  86.3971 253.1094 0001802  73.4639 286.6755 14.34217088376597
IRIDIUM 129             
1 42958U 17061D   24353.70813387  .00000162  00000+0  50640-4 0  9994
2 42958  86.3971 253.1601 0002511  80.3404 279.8075 14.34217702376612
